STARLINK-1411
1 45706U 20035BB  26092.91668981  .00246891  00000+0  21507-2 0  9995
2 45706  53.0406 222.5781 0003751 295.8506 149.2325 15.67719164  5895
STARLINK-1788
1 46689U 20073V   26092.83335647  .00207371  00000+0  18161-2 0  9991
2 46689  53.0394  99.9526 0004685  59.5772 316.3242 15.67713936  5821
STARLINK-1882
1 46784U 20074AX  26092.83335647  .00131755  00000+0  11664-2 0  9991
2 46784  53.0499 156.3632 0002291 326.7048  36.5651 15.67720689  5823
